NORAD_CAT_ID,OBJECT_NAME,OBJECT_TYPE,EPOCH,MEAN_MOTION,ECCENTRICITY,INCLINATION,RA_OF_ASC_NODE,ARG_OF_PERICENTER,MEAN_ANOMALY,BSTAR,MEAN_MOTION_DOT,MEAN_MOTION_DDOT,TLE_LINE0,TLE_LINE1,TLE_LINE2,SEMIMAJOR_AXIS,PERIOD,APOGEE,PERIGEE,DECAYED
53023.0,STARLINK-4284,PAYLOAD,2024-08-04 05:05:09,15.08844651,0.0001608,53.2172,178.9588,95.7484,264.3691,4.9598e-05,5.02e-06,0.0,0 STARLINK-4284,1 53023U 22076AP  24217.21191656  .00000502  00000-0  49598-4 0  9993,2 53023  53.2172 178.9588 0001608  95.7484 264.3691 15.08844651115520,6917.866,95.437,540.844,538.619,0.0
53023.0,STARLINK-4284,PAYLOAD,2024-08-04 14:37:28,15.08842063,0.0001523,53.2162,177.1723,89.1134,271.0033,5.3434e-05,5.63e-06,0.0,0 STARLINK-4284,1 53023U 22076AP  24217.60935819  .00000563  00000-0  53434-4 0  9994,2 53023  53.2162 177.1723 0001523  89.1134 271.0033 15.08842063115111,6917.874,95.437,540.793,538.685,0.0
53023.0,STARLINK-4284,PAYLOAD,2024-08-04 20:59:00,15.08845785,0.0001487,53.216,175.9844,91.6849,268.4313,9.6395e-05,1.247e-05,0.0,0 STARLINK-4284,1 53023U 22076AP  24217.87431445  .00001247  00000-0  96395-4 0  9992,2 53023  53.2160 175.9844 0001487  91.6849 268.4313 15.08845785115158,6917.863,95.437,540.756,538.699,0.0
53023.0,STARLINK-4284,PAYLOAD,2024-08-05 04:55:55,15.08859661,0.0001395,53.2161,174.4958,95.1521,264.9631,0.00014323,1.993e-05,0.0,0 STARLINK-4284,1 53023U 22076AP  24218.20550266  .00001993  00000-0  14323-3 0  9991,2 53023  53.2161 174.4958 0001395  95.1521 264.9631 15.08859661115672,6917.82,95.436,540.65,538.72,0.0
53023.0,STARLINK-4284,PAYLOAD,2024-08-06 03:11:22,15.08817873,0.0001727,53.2166,170.333,86.248,273.8709,-0.00010831,-2.01e-05,0.0,0 STARLINK-4284,1 53023U 22076AP  24219.13290501 -.00002010  00000-0 -10831-3 0  9990,2 53023  53.2166 170.3330 0001727  86.2480 273.8709 15.08817873115810,6917.948,95.439,541.008,538.618,0.0
53023.0,STARLINK-4284,PAYLOAD,2024-08-06 06:22:08,15.08825826,0.0001277,53.2167,169.7391,84.4615,275.6523,-7.9993e-05,-1.56e-05,0.0,0 STARLINK-4284,1 53023U 22076AP  24219.26537952 -.00001560  00000-0 -79993-4 0  9992,2 53023  53.2167 169.7391 0001277  84.4615 275.6523 15.08825826115833,6917.924,95.438,540.672,538.905,0.0
53023.0,STARLINK-4284,PAYLOAD,2024-08-06 14:19:03,15.08842348,0.0001264,53.2172,168.2518,90.7507,269.363,7.9211e-05,9.73e-06,0.0,0 STARLINK-4284,1 53023U 22076AP  24219.59656519  .00000973  00000-0  79211-4 0  9997,2 53023  53.2172 168.2518 0001264  90.7507 269.3630 15.08842348115411,6917.873,95.437,540.613,538.864,0.0
53023.0,STARLINK-4284,PAYLOAD,2024-08-07 01:26:44,15.08848039,0.0001329,53.2171,166.1732,71.1884,288.9252,0.00012417,1.689e-05,0.0,0 STARLINK-4284,1 53023U 22076AP  24220.06024106  .00001689  00000-0  12417-3 0  9991,2 53023  53.2171 166.1732 0001329  71.1884 288.9252 15.08848039115485,6917.856,95.437,540.64,538.801,0.0
53023.0,STARLINK-4284,PAYLOAD,2024-08-08 06:03:40,15.08840136,0.0001523,53.2176,160.812,107.6593,252.4566,0.00049051,7.527e-05,0.0,0 STARLINK-4284,1 53023U 22076AP  24221.25255755  .00007527  00000-0  49051-3 0  9990,2 53023  53.2176 160.8120 0001523 107.6593 252.4566 15.08840136115664,6917.88,95.438,540.799,538.691,0.0
53023.0,STARLINK-4284,PAYLOAD,2024-08-09 02:43:41,15.08850386,0.0001602,53.2175,156.9459,118.1808,241.9346,-3.0591e-05,-7.75e-06,0.0,0 STARLINK-4284,1 53023U 22076AP  24222.11367824 -.00000775  00000-0 -30591-4 0  9997,2 53023  53.2175 156.9459 0001602 118.1808 241.9346 15.08850386116262,6917.849,95.437,540.822,538.605,0.0
53023.0,STARLINK-4284,PAYLOAD,2024-08-09 12:16:00,15.08846758,0.0001625,53.2167,155.1607,71.6726,288.4443,-8.2845e-05,-1.607e-05,0.0,0 STARLINK-4284,1 53023U 22076AP  24222.51112192 -.00001607  00000-0 -82845-4 0  9991,2 53023  53.2167 155.1607 0001625  71.6726 288.4443 15.08846758115852,6917.86,95.437,540.849,538.601,0.0
53023.0,STARLINK-4284,PAYLOAD,2024-08-09 20:12:57,15.08838786,0.00013,53.2174,153.6789,103.6708,256.4429,-0.00016519,-2.916e-05,0.0,0 STARLINK-4284,1 53023U 22076AP  24222.84232828 -.00002916  00000-0 -16519-3 0  9994,2 53023  53.2174 153.6789 0001300 103.6708 256.4429 15.08838786116379,6917.884,95.438,540.648,538.85,0.0
53023.0,STARLINK-4284,PAYLOAD,2024-08-10 02:34:28,15.0884964,0.0001406,53.2163,152.4889,114.2834,245.8305,-2.2847e-05,-6.52e-06,0.0,0 STARLINK-4284,1 53023U 22076AP  24223.10727206 -.00000652  00000-0 -22847-4 0  9990,2 53023  53.2163 152.4889 0001406 114.2834 245.8305 15.08849640116411,6917.851,95.437,540.689,538.743,0.0
53023.0,STARLINK-4284,PAYLOAD,2024-08-11 11:57:34,15.0884249,0.0002351,53.2161,146.2401,73.0617,287.0632,0.00012776,1.746e-05,0.0,0 STARLINK-4284,1 53023U 22076AP  24224.49832149  .00001746  00000-0  12776-3 0  9998,2 53023  53.2161 146.2401 0002351  73.0617 287.0632 15.08842490116621,6917.873,95.437,541.364,538.111,0.0
53023.0,STARLINK-4284,PAYLOAD,2024-08-12 03:51:25,15.08861609,0.0001278,53.2163,143.2683,108.3257,251.7874,0.00029421,4.4e-05,0.0,0 STARLINK-4284,1 53023U 22076AP  24225.16070817  .00004400  00000-0  29421-3 0  9994,2 53023  53.2163 143.2683 0001278 108.3257 251.7874 15.08861609116721,6917.814,95.436,540.563,538.795,0.0
53023.0,STARLINK-4284,PAYLOAD,2024-08-12 11:48:21,15.08845729,0.0001286,53.2174,141.779,125.1969,234.9144,9.77e-05,1.268e-05,0.0,0 STARLINK-4284,1 53023U 22076AP  24225.49191470  .00001268  00000-0  97700-4 0  9994,2 53023  53.2174 141.7790 0001286 125.1969 234.9144 15.08845729116774,6917.863,95.437,540.618,538.838,0.0
53023.0,STARLINK-4284,PAYLOAD,2024-08-12 22:56:02,15.0886543,0.0001469,53.2152,139.7093,101.121,258.9948,0.00018337,2.634e-05,0.0,0 STARLINK-4284,1 53023U 22076AP  24225.95558540  .00002634  00000-0  18337-3 0  9996,2 53023  53.2152 139.7093 0001469 101.1210 258.9948 15.08865430116374,6917.803,95.436,540.684,538.651,0.0
53023.0,STARLINK-4284,PAYLOAD,2024-08-13 02:06:51,15.0880894,0.0001235,53.2158,139.1101,98.2517,261.8615,-0.00062106,-0.0001015,0.0,0 STARLINK-4284,1 53023U 22076AP  24226.08809331 -.00010150  00000-0 -62106-3 0  9995,2 53023  53.2158 139.1101 0001235  98.2517 261.8615 15.08808940116862,6917.975,95.44,540.695,538.986,0.0
53023.0,STARLINK-4284,PAYLOAD,2024-08-13 11:39:12,15.08784031,0.0001401,53.2159,137.3238,98.2706,261.8445,-0.00082005,-0.00013295,0.0,0 STARLINK-4284,1 53023U 22076AP  24226.48555667 -.00013295  00000-0 -82005-3 0  9992,2 53023  53.2159 137.3238 0001401  98.2706 261.8445 15.08784031116921,6918.051,95.441,540.886,538.947,0.0
53023.0,STARLINK-4284,PAYLOAD,2024-08-13 22:46:53,15.08809653,0.0001217,53.2161,135.2438,72.3167,287.7958,-0.00010971,-2.032e-05,0.0,0 STARLINK-4284,1 53023U 22076AP  24226.94923396 -.00002032  00000-0 -10971-3 0  9991,2 53023  53.2161 135.2438 0001217  72.3167 287.7958 15.08809653116522,6917.973,95.439,540.68,538.996,0.0
53023.0,STARLINK-4284,PAYLOAD,2024-08-14 00:22:14,15.08852102,0.0001519,53.2158,134.9465,132.695,227.417,0.00019304,2.787e-05,0.0,0 STARLINK-4284,1 53023U 22076AP  24227.01545077  .00002787  00000-0  19304-3 0  9990,2 53023  53.2158 134.9465 0001519 132.6950 227.4170 15.08852102117007,6917.843,95.437,540.759,538.658,0.0
53023.0,STARLINK-4284,PAYLOAD,2024-08-14 11:29:57,15.08848289,0.0001273,53.2155,132.8656,89.0141,271.0997,0.00019511,2.819e-05,0.0,0 STARLINK-4284,1 53023U 22076AP  24227.47913611  .00002819  00000-0  19511-3 0  9999,2 53023  53.2155 132.8656 0001273  89.0141 271.0997 15.08848289117077,6917.855,95.437,540.601,538.839,0.0
53023.0,STARLINK-4284,PAYLOAD,2024-08-14 22:37:39,15.08852957,0.0001487,53.215,130.7877,74.8462,285.2695,0.00037199,5.639e-05,0.0,0 STARLINK-4284,1 53023U 22076AP  24227.94281579  .00005639  00000-0  37199-3 0  9997,2 53023  53.2150 130.7877 0001487  74.8462 285.2695 15.08852957116673,6917.841,95.437,540.734,538.677,0.0
53023.0,STARLINK-4284,PAYLOAD,2024-08-15 00:13:02,15.08855761,0.0001235,53.2152,130.4862,96.2095,263.9037,0.00051292,7.888e-05,0.0,0 STARLINK-4284,1 53023U 22076AP  24228.00905304  .00007888  00000-0  51292-3 0  9992,2 53023  53.2152 130.4862 0001235  96.2095 263.9037 15.08855761116687,6917.832,95.437,540.552,538.843,0.0
53023.0,STARLINK-4284,PAYLOAD,2024-08-15 22:28:26,15.08845935,0.000108,53.2155,126.3232,86.5047,273.6069,0.00025217,3.728e-05,0.0,0 STARLINK-4284,1 53023U 22076AP  24228.93641744  .00003728  00000-0  25217-3 0  9996,2 53023  53.2155 126.3232 0001080  86.5047 273.6069 15.08845935116823,6917.862,95.437,540.474,538.98,0.0
53023.0,STARLINK-4284,PAYLOAD,2024-08-16 00:03:49,15.08847309,0.0001198,53.2155,126.0256,90.0185,270.0944,0.0002518,3.723e-05,0.0,0 STARLINK-4284,1 53023U 22076AP  24229.00265759  .00003723  00000-0  25180-3 0  9997,2 53023  53.2155 126.0256 0001198  90.0185 270.0944 15.08847309117303,6917.858,95.437,540.552,538.894,0.0
53023.0,STARLINK-4284,PAYLOAD,2024-08-16 23:54:35,15.08853265,0.0001264,53.2158,121.567,97.4173,262.6963,-0.00011908,-2.183e-05,0.0,0 STARLINK-4284,1 53023U 22076AP  24229.99624594 -.00002183  00000-0 -11908-3 0  9995,2 53023  53.2158 121.5670 0001264  97.4173 262.6963 15.08853265116987,6917.84,95.437,540.579,538.83,0.0
53023.0,STARLINK-4284,PAYLOAD,2024-08-17 15:48:27,15.08834809,0.0001287,53.2159,118.5911,109.2735,250.8397,-2.9322e-05,-7.54e-06,0.0,0 STARLINK-4284,1 53023U 22076AP  24230.65865447 -.00000754  00000-0 -29322-4 0  9996,2 53023  53.2159 118.5911 0001287 109.2735 250.8397 15.08834809117550,6917.896,95.438,540.652,538.871,0.0
53023.0,STARLINK-4284,PAYLOAD,2024-08-17 22:10:00,15.08845201,0.0001233,53.2167,117.4032,103.114,256.999,-0.00014591,-2.61e-05,0.0,0 STARLINK-4284,1 53023U 22076AP  24230.92361790 -.00002610  00000-0 -14591-3 0  9992,2 53023  53.2167 117.4032 0001233 103.1140 256.9990 15.08845201117122,6917.864,95.437,540.582,538.877,0.0
53023.0,STARLINK-4284,PAYLOAD,2024-08-18 20:25:23,15.08856189,0.0001413,53.2165,113.2373,126.5301,233.5822,2.5816e-05,1.23e-06,0.0,0 STARLINK-4284,1 53023U 22076AP  24231.85096433  .00000123  00000-0  25816-4 0  9992,2 53023  53.2165 113.2373 0001413 126.5301 233.5822 15.08856189117739,6917.831,95.437,540.673,538.718,0.0
